STARLINK-31587          
1 59570U 24076G   26067.85851255  .00002422  00000+0  97556-4 0  9990
2 59570  43.0037  13.8613 0001636 266.6818  93.3846 15.27566597106395
FLOCK 4G-2              
1 62661U 25009BE  26068.66207492  .00013752  00000+0  51068-3 0  9995
2 62661  97.4044 151.2221 0003181 329.2677  30.8376 15.27675260121321
